<?xml version="1.0" encoding="UTF-8"?>
<kml xmlns="http://www.opengis.net/kml/2.2" xmlns:gx="http://www.google.com/kml/ext/2.2" xmlns:kml="http://www.opengis.net/kml/2.2" xmlns:atom="http://www.w3.org/2005/Atom">
<Placemark>
	<Style>
		<LineStyle>
			<color>ff0000ff</color>
		</LineStyle>
		<PolyStyle>
			<fill>0</fill>
		</PolyStyle>
	</Style>
	<Polygon>
		<outerBoundaryIs>
			<LinearRing>
				<coordinates>
					9,-1,0 13,-1,0 13,-4,0 9,-4,0 9,-1,0
				</coordinates>
			</LinearRing>
		</outerBoundaryIs>
	</Polygon>
	<atom:link rel="app" href="https://www.google.com/earth/about/versions/#earth-pro" title="Google Earth Pro 7.3.7.1155"></atom:link>
</Placemark>
</kml>
